NORAD_CAT_ID,OBJECT_NAME,OBJECT_TYPE,EPOCH,MEAN_MOTION,ECCENTRICITY,INCLINATION,RA_OF_ASC_NODE,ARG_OF_PERICENTER,MEAN_ANOMALY,BSTAR,MEAN_MOTION_DOT,MEAN_MOTION_DDOT,TLE_LINE0,TLE_LINE1,TLE_LINE2,SEMIMAJOR_AXIS,PERIOD,APOGEE,PERIGEE,DECAYED
53541.0,STARLINK-4485,PAYLOAD,2022-10-05 14:00:01,15.08869781,0.0001291,53.2153,290.533,7.5162,40.5704,0.0013276,0.00020921,0.0,0 STARLINK-4485,1 53541U 22101Q   22278.58335648  .00020921  00000-0  13276-2 0  9992,2 53541  53.2153 290.5330 0001291   7.5162  40.5704 15.08869781  7296,6917.7890000000025,95.436,540.547,538.761,0.0
53541.0,STARLINK-4485,PAYLOAD,2022-10-05 22:00:00,15.08888782,0.000112,53.2159,289.0349,16.3782,43.2883,-0.0020242,-0.00032401,0.0,0 STARLINK-4485,1 53541U 22101Q   22278.91667824 -.00032401  00000-0 -20242-2 0  9992,2 53541  53.2159 289.0349 0001120  16.3782  43.2883 15.08888782  1308,6917.731,95.434,540.371,538.822,0.0
53541.0,STARLINK-4485,PAYLOAD,2022-10-06 06:00:00,15.08854836,0.0001422,53.2159,287.5398,29.7726,41.5396,-0.0052801,-0.00083382,0.0,0 STARLINK-4485,1 53541U 22101Q   22279.25001157 -.00083382  00000-0 -52801-2 0  9991,2 53541  53.2159 287.5398 0001422  29.7726  41.5396 15.08854836  7394,6917.835,95.437,540.684,538.716,0.0
53541.0,STARLINK-4485,PAYLOAD,2022-10-06 14:00:01,15.08808375,0.0001520999999999,53.2158,286.0435,28.5418,54.342,0.00075609,0.00011755,0.0,0 STARLINK-4485,1 53541U 22101Q   22279.58334491  .00011755  00000-0  75609-3 0  9992,2 53541  53.2158 286.0435 0001521  28.5418  54.3420 15.08808375  1306,6917.977,95.44,540.894,538.79,0.0
53541.0,STARLINK-4485,PAYLOAD,2022-10-06 22:42:55,15.08805638,0.0001327,53.216,284.4118,36.2805,220.0815,0.003534,0.00056352,0.0,0 STARLINK-4485,1 53541U 22101Q   22279.94646991  .00056352  00000-0  35340-2 0  9992,2 53541  53.2160 284.4118 0001327  36.2805 220.0815 15.08805638  7494,6917.985,95.44,540.768,538.932,0.0
53541.0,STARLINK-4485,PAYLOAD,2022-10-07 14:00:01,15.08859077,0.0001551999999999,53.2158,281.5541,32.0238,85.5999,0.00048024,7.367e-05,0.0,0 STARLINK-4485,1 53541U 22101Q   22280.58334491  .00007367  00000-0  48024-3 0  9999,2 53541  53.2158 281.5541 0001552  32.0238  85.5999 15.08859077  1300,6917.821999999999,95.436,540.761,538.613,0.0
53541.0,STARLINK-4485,PAYLOAD,2022-10-07 22:00:00,15.08853178,0.0001398,53.216,280.0561,41.3133,87.9371,0.00073109,0.00011371,0.0,0 STARLINK-4485,1 53541U 22101Q   22280.91667824  .00011371  00000-0  73109-3 0  9997,2 53541  53.2160 280.0561 0001398  41.3133  87.9371 15.08853178  1300,6917.84,95.437,540.672,538.738,0.0
53541.0,STARLINK-4485,PAYLOAD,2022-10-08 14:00:01,15.08849294,0.0001688,53.2165,277.0644,42.1207,110.3442,-7.4593e-05,-1.475e-05,0.0,0 STARLINK-4485,1 53541U 22101Q   22281.58334491 -.00001475  00000-0 -74593-4 0  9997,2 53541  53.2165 277.0644 0001688  42.1207 110.3442 15.08849294  7744,6917.852,95.437,540.885,538.549,0.0
53541.0,STARLINK-4485,PAYLOAD,2022-10-08 22:00:00,15.08859724,0.0001563,53.2174,275.5665,51.2114,112.8622,-0.00031019,-5.224e-05,0.0,0 STARLINK-4485,1 53541U 22101Q   22281.91667824 -.00005224  00000-0 -31019-3 0  9994,2 53541  53.2174 275.5665 0001563  51.2114 112.8622 15.08859724  1302,6917.82,95.436,540.766,538.604,0.0
53541.0,STARLINK-4485,PAYLOAD,2022-10-09 14:00:01,15.08869969,0.0001723,53.2173,272.5748,48.4081,138.8747,-0.0032439,-0.00051588,0.0,0 STARLINK-4485,1 53541U 22101Q   22282.58334491 -.00051588  00000-0 -32439-2 0  9999,2 53541  53.2173 272.5748 0001723  48.4081 138.8747 15.08869969  1307,6917.7890000000025,95.436,540.846,538.462,0.0
53541.0,STARLINK-4485,PAYLOAD,2022-10-09 22:00:00,15.08838217,0.0001602,53.2174,271.0772,56.1474,142.7442,0.00059532,9.199e-05,0.0,0 STARLINK-4485,1 53541U 22101Q   22282.91667824  .00009199  00000-0  59532-3 0  9998,2 53541  53.2174 271.0772 0001602  56.1474 142.7442 15.08838217  7941,6917.886,95.438,540.859,538.643,0.0
53541.0,STARLINK-4485,PAYLOAD,2022-10-10 14:00:01,15.08874674,0.000171,53.2172,268.0867,52.023,170.0691,-0.0032451,-0.00051613,0.0,0 STARLINK-4485,1 53541U 22101Q   22283.58334491 -.00051613  00000-0 -32451-2 0  9993,2 53541  53.2172 268.0867 0001710  52.0230 170.0691 15.08874674  1306,6917.774,95.435,540.822,538.456,0.0
53541.0,STARLINK-4485,PAYLOAD,2022-10-10 22:00:01,15.08901629,0.0001519,53.2173,266.5961,54.385,179.3713,-0.0130289999999999,-0.0020222,0.0,0 STARLINK-4485,1 53541U 22101Q   22283.91668981 -.00202220  00000-0 -13029-1 0  9995,2 53541  53.2173 266.5961 0001519  54.3850 179.3713 15.08901629  8096,6917.691999999999,95.434,540.6080000000002,538.506,0.0
53541.0,STARLINK-4485,PAYLOAD,2022-10-11 06:00:00,15.08816977,0.0001625,53.2174,265.0953,48.4586,196.825,-0.00091991,-0.00014889,0.0,0 STARLINK-4485,1 53541U 22101Q   22284.25001157 -.00014889  00000-0 -91991-3 0  9997,2 53541  53.2174 265.0953 0001625  48.4586 196.8250 15.08816977  8147,6917.951,95.439,540.94,538.692,0.0
53541.0,STARLINK-4485,PAYLOAD,2022-10-11 14:00:01,15.08824656,0.000165,53.2173,263.6051,47.53,209.3064,0.00042546,6.487e-05,0.0,0 STARLINK-4485,1 53541U 22101Q   22284.58334491  .00006487  00000-0  42546-3 0  9998,2 53541  53.2173 263.6051 0001650  47.5300 209.3064 15.08824656  1308,6917.927,95.439,540.934,538.651,0.0
53541.0,STARLINK-4485,PAYLOAD,2022-10-11 22:00:00,15.08820471,0.0001433,53.2175,262.0988,54.5676,213.8494,0.0027975,0.00044492,0.0,0 STARLINK-4485,1 53541U 22101Q   22284.91667824  .00044492  00000-0  27975-2 0  9990,2 53541  53.2175 262.0988 0001433  54.5676 213.8494 15.08820471  8243,6917.94,95.439,540.7959999999998,538.814,0.0
53541.0,STARLINK-4485,PAYLOAD,2022-10-12 14:00:01,15.08856021,0.0001564,53.2176,259.1161,45.6912,245.909,-0.0028673,-0.00045652,0.0,0 STARLINK-4485,1 53541U 22101Q   22285.58334491 -.00045652  00000-0 -28673-2 0  9992,2 53541  53.2176 259.1161 0001564  45.6912 245.9090 15.08856021  1301,6917.831,95.437,540.778,538.614,0.0
53541.0,STARLINK-4485,PAYLOAD,2022-10-12 22:00:00,15.0883318,0.0001541,53.2175,257.624,54.3769,248.8131,0.00043187,6.591e-05,0.0,0 STARLINK-4485,1 53541U 22101Q   22285.91667824  .00006591  00000-0  43187-3 0  9993,2 53541  53.2175 257.6240 0001541  54.3769 248.8131 15.08833180  1302,6917.901,95.438,540.832,538.7,0.0
53541.0,STARLINK-4485,PAYLOAD,2022-10-13 06:00:00,15.08816339,0.0001665999999999,53.2181,256.1227,51.3084,263.4499,0.003456,0.00055109,0.0,0 STARLINK-4485,1 53541U 22101Q   22286.25001157  .00055109  00000-0  34560-2 0  9995,2 53541  53.2181 256.1227 0001666  51.3084 263.4499 15.08816339  8453,6917.953,95.439,540.97,538.665,0.0
53541.0,STARLINK-4485,PAYLOAD,2022-10-13 14:00:01,15.08900641,0.0001353,53.2177,254.6311,50.8439,275.4917,-0.0057204,-0.00090337,0.0,0 STARLINK-4485,1 53541U 22101Q   22286.58334491 -.00090337  00000-0 -57204-2 0  9995,2 53541  53.2177 254.6311 0001353  50.8439 275.4917 15.08900641  1301,6917.695,95.434,540.496,538.624,0.0
53541.0,STARLINK-4485,PAYLOAD,2022-10-13 20:00:01,15.08836601,0.0001171999999999,53.2172,253.5116,57.4248,187.7043,-5.3476e-05,-1.139e-05,0.0,0 STARLINK-4485,1 53541U 22101Q   22286.83335648 -.00001139  00000-0 -53476-4 0  9999,2 53541  53.2172 253.5116 0001172  57.4248 187.7043 15.08836601  8538,6917.891,95.438,540.567,538.945,0.0
53541.0,STARLINK-4485,PAYLOAD,2022-10-13 22:00:00,15.08835359,0.0001184,53.2175,253.138,58.1497,279.8142,0.00021815,3.185e-05,0.0,0 STARLINK-4485,1 53541U 22101Q   22286.91667824  .00003185  00000-0  21815-3 0  9994,2 53541  53.2175 253.1380 0001184  58.1497 279.8142 15.08835359  1307,6917.895,95.438,540.5790000000002,538.94,0.0
53541.0,STARLINK-4485,PAYLOAD,2022-10-14 14:00:01,15.08832739,0.0001382,53.2176,250.1432,60.1452,301.0067,0.00030897,4.632e-05,0.0,0 STARLINK-4485,1 53541U 22101Q   22287.58334491  .00004632  00000-0  30897-3 0  9997,2 53541  53.2176 250.1432 0001382  60.1452 301.0067 15.08832739  1311,6917.903,95.438,540.724,538.812,0.0
53541.0,STARLINK-4485,PAYLOAD,2022-10-14 18:00:00,15.08836501,0.0001307,53.2174,249.3969,65.7882,121.1563,2.0523000000000007e-05,3.9e-07,0.0,0 STARLINK-4485,1 53541U 22101Q   22287.75001157  .00000039  00000-0  20523-4 0  9999,2 53541  53.2174 249.3969 0001307  65.7882 121.1563 15.08836501  1301,6917.891,95.438,540.66,538.852,0.0
53541.0,STARLINK-4485,PAYLOAD,2022-10-15 06:00:00,15.08848658,0.0001721999999999,53.2179,247.1516,50.5706,333.7568,-0.0011957,-0.00019272,0.0,0 STARLINK-4485,1 53541U 22101Q   22288.25001157 -.00019272  00000-0 -11957-2 0  9995,2 53541  53.2179 247.1516 0001722  50.5706 333.7568 15.08848658  8756,6917.854,95.437,540.91,538.528,0.0
53541.0,STARLINK-4485,PAYLOAD,2022-10-15 14:00:01,15.08863799,0.0001475,53.2187,245.6405,51.8098,344.147,-0.0017109999999999,-0.00027433,0.0,0 STARLINK-4485,1 53541U 22101Q   22288.58334491 -.00027433  00000-0 -17110-2 0  9996,2 53541  53.2187 245.6405 0001475  51.8098 344.1470 15.08863799  1303,6917.808000000001,95.436,540.693,538.6519999999998,0.0
53541.0,STARLINK-4485,PAYLOAD,2022-10-15 22:00:01,15.08931917,0.000152,53.2183,244.1513,56.1979,351.4426,-0.01735,-0.00267002,0.0,0 STARLINK-4485,1 53541U 22101Q   22288.91668981 -.00267002  00000-0 -17350-1 0  9990,2 53541  53.2183 244.1513 0001520  56.1979 351.4426 15.08931917  1300,6917.599,95.432,540.516,538.413,0.0
53541.0,STARLINK-4485,PAYLOAD,2022-10-16 14:00:01,15.08830438,0.0001646,53.2183,241.1518,60.2093,10.5002,-7.960399999999999e-05,-1.554e-05,0.0,0 STARLINK-4485,1 53541U 22101Q   22289.58334491 -.00001554  00000-0 -79604-4 0  9991,2 53541  53.2183 241.1518 0001646  60.2093  10.5002 15.08830438  1303,6917.91,95.438,540.913,538.636,0.0
53541.0,STARLINK-4485,PAYLOAD,2022-10-16 22:00:00,15.08851234,0.0001593,53.2182,239.6574,65.2724,17.0131,0.0002735,4.069e-05,0.0,0 STARLINK-4485,1 53541U 22101Q   22289.91667824  .00004069  00000-0  27350-3 0  9999,2 53541  53.2182 239.6574 0001593  65.2724  17.0131 15.08851234  1305,6917.846,95.437,540.813,538.609,0.0
